{"type": "FeatureCollection", "features": [ {"type": "Feature", "properties": {"norad_id": 35191, "name": "FENGYUN 1C DEB", "group": "fengyun-1c-debris", "lat": -29.34874326728904, "lon": -16.56129172360791, "alt_km": 994.0802567034843, "timestamp": "2025-12-22T16:55:17.751285+00:00", "meta": {"OBJECT_NAME": "FENGYUN 1C DEB", "OBJECT_ID": "1999-025DNX", "EPOCH": "2025-12-21T04:49:10.111008", "MEAN_MOTION": 13.91207392, "ECCENTRICITY": 0.01025786, "INCLINATION": 99.0161, "RA_OF_ASC_NODE": 336.856, "ARG_OF_PERICENTER": 185.6565, "MEAN_ANOMALY": 174.3444, "EPHEMERIS_TYPE": 0, "CLASSIFICATION_TYPE": "U", "NORAD_CAT_ID": 35191, "ELEMENT_SET_NO": 999, "REV_AT_EPOCH": 88019, "BSTAR": 7.2115022e-05, "MEAN_MOTION_DOT": 5.2e-07, "MEAN_MOTION_DDOT": 0}, "tle": {"line1": "1 35191U 99025DNX 25355.20081147  .00000052  00000+0  72115-4 0  9993", "line2": "2 35191  99.0161 336.8560 0102578 185.6565 174.3444 13.91207392880197"}}, "geometry": {"type": "Point", "coordinates": [-16.56129172360791, -29.34874326728904]}}, {"type": "Feature", "properties": {"norad_id": 35194, "name": "FENGYUN 1C DEB", "group": "fengyun-1c-debris", "lat": -14.871037613471227, "lon": -101.57881211547267, "alt_km": 765.7861286618063, "timestamp": "2025-12-22T16:55:17.751296+00:00", "meta": {"OBJECT_NAME": "FENGYUN 1C DEB", "OBJECT_ID": "1999-025DPA", "EPOCH": "2025-12-12T01:09:46.826496", "MEAN_MOTION": 14.60293761, "ECCENTRICITY": 0.01145377, "INCLINATION": 98.9481, "RA_OF_ASC_NODE": 69.3173, "ARG_OF_PERICENTER": 78.0348, "MEAN_ANOMALY": 283.3663, "EPHEMERIS_TYPE": 0, "CLASSIFICATION_TYPE": "U", "NORAD_CAT_ID": 35194, "ELEMENT_SET_NO": 999, "REV_AT_EPOCH": 65380, "BSTAR": 0.0013884757, "MEAN_MOTION_DOT": 7.302e-05, "MEAN_MOTION_DDOT": 0}, "tle": {"line1": "1 35194U 99025DPA 25346.04845864  .00007302  00000+0  13885-2 0  9994", "line2": "2 35194  98.9481  69.3173 0114537  78.0348 283.3663 14.60293761653805"}}, "geometry": {"type": "Point", "coordinates": [-101.57881211547267, -14.871037613471227]}}, {"type": "Feature", "properties": {"norad_id": 35195, "name": "FENGYUN 1C DEB", "group": "fengyun-1c-debris", "lat": 46.008510274769016, "lon": 82.36117912592087, "alt_km": 629.4125277999465, "timestamp": "2025-12-22T16:55:17.751306+00:00", "meta": {"OBJECT_NAME": "FENGYUN 1C DEB", "OBJECT_ID": "1999-025DPB", "EPOCH": "2025-12-22T00:13:11.050752", "MEAN_MOTION": 14.56075871, "ECCENTRICITY": 0.01032816, "INCLINATION": 98.9839, "RA_OF_ASC_NODE": 91.0439, "ARG_OF_PERICENTER": 40.5649, "MEAN_ANOMALY": 320.3184, "EPHEMERIS_TYPE": 0, "CLASSIFICATION_TYPE": "U", "NORAD_CAT_ID": 35195, "ELEMENT_SET_NO": 999, "REV_AT_EPOCH": 91061, "BSTAR": 0.00065824609, "MEAN_MOTION_DOT": 3.061e-05, "MEAN_MOTION_DDOT": 0}, "tle": {"line1": "1 35195U 99025DPB 25356.00915568  .00003061  00000+0  65825-3 0  9991", "line2": "2 35195  98.9839  91.0439 0103281  40.5649 320.3184 14.56075871910612"}}, "geometry": {"type": "Point", "coordinates": [82.36117912592087, 46.008510274769016]}}, {"type": "Feature", "properties": {"norad_id": 35196, "name": "FENGYUN 1C DEB", "group": "fengyun-1c-debris", "lat": -46.69699633836714, "lon": 20.696363853985844, "alt_km": 678.7952343400102, "timestamp": "2025-12-22T16:55:17.751316+00:00", "meta": {"OBJECT_NAME": "FENGYUN 1C DEB", "OBJECT_ID": "1999-025DPC", "EPOCH": "2025-12-21T20:00:13.244832", "MEAN_MOTION": 14.1982165, "ECCENTRICITY": 0.02139362, "INCLINATION": 98.5345, "RA_OF_ASC_NODE": 10.6872, "ARG_OF_PERICENTER": 311.9333, "MEAN_ANOMALY": 228.1951, "EPHEMERIS_TYPE": 0, "CLASSIFICATION_TYPE": "U", "NORAD_CAT_ID": 35196, "ELEMENT_SET_NO": 999, "REV_AT_EPOCH": 89263, "BSTAR": 0.00063167197, "MEAN_MOTION_DOT": 1.637e-05, "MEAN_MOTION_DDOT": 0}, "tle": {"line1": "1 35196U 99025DPC 25355.83348663  .00001637  00000+0  63167-3 0  9992", "line2": "2 35196  98.5345  10.6872 0213936 311.9333 228.1951 14.19821650892634"}}, "geometry": {"type": "Point", "coordinates": [20.696363853985844, -46.69699633836714]}}, {"type": "Feature", "properties": {"norad_id": 35200, "name": "FENGYUN 1C DEB", "group": "fengyun-1c-debris", "lat": 44.18237105739663, "lon": 161.65410154469134, "alt_km": 1134.2551279113595, "timestamp": "2025-12-22T16:55:17.751327+00:00", "meta": {"OBJECT_NAME": "FENGYUN 1C DEB", "OBJECT_ID": "1999-025DPG", "EPOCH": "2025-12-22T05:36:40.656096", "MEAN_MOTION": 13.41966977, "ECCENTRICITY": 0.03531334, "INCLINATION": 98.8712, "RA_OF_ASC_NODE": 332.5091, "ARG_OF_PERICENTER": 36.3902, "MEAN_ANOMALY": 339.1485, "EPHEMERIS_TYPE": 0, "CLASSIFICATION_TYPE": "U", "NORAD_CAT_ID": 35200, "ELEMENT_SET_NO": 999, "REV_AT_EPOCH": 66031, "BSTAR": 0.0004527153, "MEAN_MOTION_DOT": 3.32e-06, "MEAN_MOTION_DDOT": 0}, "tle": {"line1": "1 35200U 99025DPG 25356.23380389  .00000332  00000+0  45272-3 0  9992", "line2": "2 35200  98.8712 332.5091 0353133  36.3902 339.1485 13.41966977660313"}}, "geometry": {"type": "Point", "coordinates": [161.65410154469134, 44.18237105739663]}}, {"type": "Feature", "properties": {"norad_id": 35201, "name": "FENGYUN 1C DEB", "group": "fengyun-1c-debris", "lat": 17.21244865967198, "lon": 2.7158510073786277, "alt_km": 860.3111532423682, "timestamp": "2025-12-22T16:55:17.751338+00:00", "meta": {"OBJECT_NAME": "FENGYUN 1C DEB", "OBJECT_ID": "1999-025DPH", "EPOCH": "2025-12-21T06:54:48.521376", "MEAN_MOTION": 14.11055741, "ECCENTRICITY": 0.0006089, "INCLINATION": 98.7075, "RA_OF_ASC_NODE": 4.0634, "ARG_OF_PERICENTER": 221.9619, "MEAN_ANOMALY": 161.4604, "EPHEMERIS_TYPE": 0, "CLASSIFICATION_TYPE": "U", "NORAD_CAT_ID": 35201, "ELEMENT_SET_NO": 999, "REV_AT_EPOCH": 87140, "BSTAR": 6.191e-05, "MEAN_MOTION_DOT": 6.9e-07, "MEAN_MOTION_DDOT": 0}, "tle": {"line1": "1 35201U 99025DPH 25355.28806159  .00000069  00000+0  61910-4 0  9990", "line2": "2 35201  98.7075   4.0634 0006089 221.9619 161.4604 14.11055741871400"}}, "geometry": {"type": "Point", "coordinates": [2.7158510073786277, 17.21244865967198]}}, {"type": "Feature", "properties": {"norad_id": 35202, "name": "FENGYUN 1C DEB", "group": "fengyun-1c-debris", "lat": 66.99181353302765, "lon": -113.59267303936937, "alt_km": 1281.873242566946, "timestamp": "2025-12-22T16:55:17.751348+00:00", "meta": {"OBJECT_NAME": "FENGYUN 1C DEB", "OBJECT_ID": "1999-025DPJ", "EPOCH": "2025-12-16T02:04:31.277568", "MEAN_MOTION": 13.34745262, "ECCENTRICITY": 0.03737817, "INCLINATION": 100.0908, "RA_OF_ASC_NODE": 35.0737, "ARG_OF_PERICENTER": 0.1614, "MEAN_ANOMALY": 359.9571, "EPHEMERIS_TYPE": 0, "CLASSIFICATION_TYPE": "U", "NORAD_CAT_ID": 35202, "ELEMENT_SET_NO": 999, "REV_AT_EPOCH": 57021, "BSTAR": 0.00048107163, "MEAN_MOTION_DOT": 3.14e-06, "MEAN_MOTION_DDOT": 0}, "tle": {"line1": "1 35202U 99025DPJ 25350.08647312  .00000314  00000+0  48107-3 0  9993", "line2": "2 35202 100.0908  35.0737 0373781   0.1614 359.9571 13.34745262570219"}}, "geometry": {"type": "Point", "coordinates": [-113.59267303936937, 66.99181353302765]}}, {"type": "Feature", "properties": {"norad_id": 35203, "name": "FENGYUN 1C DEB", "group": "fengyun-1c-debris", "lat": -74.90356521329896, "lon": 92.85180851867494, "alt_km": 1365.7672231917386, "timestamp": "2025-12-22T16:55:17.751358+00:00", "meta": {"OBJECT_NAME": "FENGYUN 1C DEB", "OBJECT_ID": "1999-025DPK", "EPOCH": "2025-12-18T04:51:07.976160", "MEAN_MOTION": 13.26442898, "ECCENTRICITY": 0.05113843, "INCLINATION": 102.0718, "RA_OF_ASC_NODE": 320.0969, "ARG_OF_PERICENTER": 147.2129, "MEAN_ANOMALY": 216.1835, "EPHEMERIS_TYPE": 0, "CLASSIFICATION_TYPE": "U", "NORAD_CAT_ID": 35203, "ELEMENT_SET_NO": 999, "REV_AT_EPOCH": 59723, "BSTAR": 0.0016099013, "MEAN_MOTION_DOT": 1.395e-05, "MEAN_MOTION_DDOT": 0}, "tle": {"line1": "1 35203U 99025DPK 25352.20217565  .00001395  00000+0  16099-2 0  9997", "line2": "2 35203 102.0718 320.0969 0511384 147.2129 216.1835 13.26442898597230"}}, "geometry": {"type": "Point", "coordinates": [92.85180851867494, -74.90356521329896]}}, {"type": "Feature", "properties": {"norad_id": 35204, "name": "FENGYUN 1C DEB", "group": "fengyun-1c-debris", "lat": -21.106078960730365, "lon": 2.3963009571327656, "alt_km": 735.7577723050545, "timestamp": "2025-12-22T16:55:17.751369+00:00", "meta": {"OBJECT_NAME": "FENGYUN 1C DEB", "OBJECT_ID": "1999-025DPL", "EPOCH": "2025-12-21T09:03:39.055968", "MEAN_MOTION": 14.48905432, "ECCENTRICITY": 0.00394837, "INCLINATION": 99.0069, "RA_OF_ASC_NODE": 184.4907, "ARG_OF_PERICENTER": 298.2194, "MEAN_ANOMALY": 182.9509, "EPHEMERIS_TYPE": 0, "CLASSIFICATION_TYPE": "U", "NORAD_CAT_ID": 35204, "ELEMENT_SET_NO": 999, "REV_AT_EPOCH": 91055, "BSTAR": 0.0016476709, "MEAN_MOTION_DOT": 6.251e-05, "MEAN_MOTION_DDOT": 0}, "tle": {"line1": "1 35204U 99025DPL 25355.37753537  .00006251  00000+0  16477-2 0  9999", "line2": "2 35204  99.0069 184.4907 0039483 298.2194 182.9509 14.48905432910558"}}, "geometry": {"type": "Point", "coordinates": [2.3963009571327656, -21.106078960730365]}}, {"type": "Feature", "properties": {"norad_id": 35207, "name": "FENGYUN 1C DEB", "group": "fengyun-1c-debris", "lat": -5.548509016101542, "lon": 96.2852539204017, "alt_km": 735.8538785011251, "timestamp": "2025-12-22T16:55:17.751402+00:00", "meta": {"OBJECT_NAME": "FENGYUN 1C DEB", "OBJECT_ID": "1999-025DPP", "EPOCH": "2025-12-18T12:18:35.176032", "MEAN_MOTION": 14.55542717, "ECCENTRICITY": 0.00552305, "INCLINATION": 98.6905, "RA_OF_ASC_NODE": 91.073, "ARG_OF_PERICENTER": 237.6836, "MEAN_ANOMALY": 121.9005, "EPHEMERIS_TYPE": 0, "CLASSIFICATION_TYPE": "U", "NORAD_CAT_ID": 35207, "ELEMENT_SET_NO": 999, "REV_AT_EPOCH": 64988, "BSTAR": 0.0018220991, "MEAN_MOTION_DOT": 8.059e-05, "MEAN_MOTION_DDOT": 0}, "tle": {"line1": "1 35207U 99025DPP 25352.51290713  .00008059  00000+0  18221-2 0  9994", "line2": "2 35207  98.6905  91.0730 0055230 237.6836 121.9005 14.55542717649880"}}, "geometry": {"type": "Point", "coordinates": [96.2852539204017, -5.548509016101542]}}]}